<?xml version="1.0" encoding="UTF-8"?>
<kml xmlns="http://www.opengis.net/kml/2.2">
  <Document>
    <name>Encrucijada del Roque Nublo (S70)</name>
    <Style id="trailStyle">
      <LineStyle>
        <color>ff0000ff</color>
        <width>4</width>
      </LineStyle>
    </Style>
    <Style id="startStyle">
      <IconStyle>
        <color>ff00aa00</color>
        <scale>1.2</scale>
      </IconStyle>
    </Style>
    <Placemark>
      <name>Inicio del sendero</name>
      <styleUrl>#startStyle</styleUrl>
      <Point>
        <coordinates>-15.601712793206101,27.965847096247099,0</coordinates>
      </Point>
    </Placemark>
    <Placemark>
      <name>Encrucijada del Roque Nublo — S70</name>
      <description>Sendero oficial GC · Dificultad Media · 5.4 km · ~2h30</description>
      <styleUrl>#trailStyle</styleUrl>
      <LineString>
        <tessellate>1</tessellate>
        <coordinates>-15.601712793206101,27.965847096247099,0 -15.601643260567201,27.9658383127354,0 -15.6016062109176,27.965851371683399,0 -15.601616268375301,27.965918681326698,0 -15.6016220088586,27.965969302557401,0 -15.601649112437199,27.966020284444301,0 -15.6016234078284,27.966041892068802,0 -15.6016381319241,27.9660776542935,0 -15.6016561009183,27.966116267517801,0 -15.601648173524101,27.9661420970065,0 -15.6016223178817,27.9661364778691,0 -15.601581841468599,27.966113726095202,0 -15.601542859356099,27.966069472538202,0 -15.6015149132538,27.966060530630401,0 -15.601481432398201,27.966052544502599,0 -15.6014557462029,27.966063177817102,0 -15.6014667716691,27.966110898126502,0 -15.6015263085635,27.966175124496498,0 -15.6015682528054,27.9662828858288,0 -15.601540855166901,27.966290170379899,0 -15.6014919080525,27.966277976650201,0 -15.601520103200199,27.966331819880502,0 -15.6015247971454,27.966387700339499,0 -15.6015251679835,27.9664545738942,0 -15.6015162311942,27.966506668409998,0 -15.601448443354601,27.966506964720299,0 -15.6014812318243,27.9665985363395,0 -15.6015102464813,27.966674373127798,0 -15.6014897065609,27.966671585086701,0 -15.6014395221441,27.966644576120999,0 -15.6013941702781,27.966616113421502,0 -15.601358702050399,27.966623434112201,0 -15.6013756016167,27.966648689285702,0 -15.601410755189001,27.966696292408901,0 -15.6013978908667,27.966704946908902,0 -15.601354218064801,27.966687941225398,0 -15.601311292222,27.966694350264799,0 -15.601309153195899,27.966711066896298,0 -15.6013399457812,27.966733861066501,0 -15.6013385238927,27.966753941657899,0 -15.6012544043099,27.9667342348673,0 -15.601230193807,27.966734340653201,0 -15.6012271008318,27.9667587154964,0 -15.6012689542485,27.9668211217449,0 -15.6013552729697,27.966863735913499,0 -15.601398670196399,27.966928032861599,0 -15.6014392988653,27.966978012340299,0 -15.6014530135845,27.9670257208892,0 -15.601386790306099,27.967031729879398,0 -15.6013697688647,27.967052357081499,0 -15.6014095849961,27.967067456850099,0 -15.601439868303901,27.9670807116186,0 -15.6014792419773,27.967113009850198,0 -15.601479329388001,27.967128773423202,0 -15.6014697248161,27.9671431458641,0 -15.6014342881997,27.967156197717902,0 -15.6013757318399,27.967157421347899,0 -15.6013839470177,27.967183657799598,0 -15.6013053186661,27.967183989686902,0 -15.6012584722555,27.967177028713799,0 -15.6012424275104,27.967194295371499,0 -15.601230761529701,27.9672105995671,0 -15.6012574628342,27.967252264644198,0 -15.6013042602259,27.967284307517801,0 -15.601328653566799,27.967317160519901,0 -15.6013095935837,27.9673583367953,0 -15.601332413856399,27.967413158604501,0 -15.6012615245234,27.967436397115101,0 -15.6012908229656,27.967480693958201,0 -15.601313617716601,27.967516420038699,0 -15.601310556522799,27.967546527827899,0 -15.601305944359501,27.967588106760299,0 -15.601289812177599,27.967589609850901,0 -15.601230018403699,27.967561700382699,0 -15.601171727684999,27.9675428348514,0 -15.6011575163656,27.967557410646599,0 -15.601141313418699,27.967574029840598,0 -15.6011233857337,27.967557376506001,0 -15.601084355628601,27.967504524767001,0 -15.6010342185629,27.967486113727801,0 -15.600964688553599,27.967463488683599,0 -15.6008966381376,27.967416495815101,0 -15.600836895446999,27.967412457108399,0 -15.6008127889975,27.967431192415301,0 -15.6008609952912,27.967474940995501,0 -15.6009214759682,27.967529597513501,0 -15.6009098125542,27.967546380104999,0 -15.600855285109001,27.967527020472801,0 -15.600790605590699,27.967505807657201,0 -15.600701850334801,27.967509061245,0 -15.600565475439399,27.967545494864499,0 -15.6005100363476,27.967555755956401,0 -15.600457914644901,27.9675531290587,0 -15.6004617429115,27.967578895443001,0 -15.6005362651719,27.9676287272754,0 -15.600620215150601,27.967714832875,0 -15.600696146565801,27.967774910498999,0 -15.6007116192573,27.967815691300199,0 -15.600724904396101,27.967882986,0 -15.6007055758772,27.967890236062701,0 -15.600666791854801,27.967881807099801,0 -15.6006585466787,27.967850316086,0 -15.600618187822199,27.9678490587612,0 -15.600618354461201,27.967879152446201,0 -15.6005943986292,27.967925114475801,0 -15.6005773739082,27.9680570289934,0 -15.600629220917,27.9680926292801,0 -15.600694084308399,27.968146801865998,0 -15.600708848078501,27.9681897287834,0 -15.600671545382401,27.9682400604161,0 -15.600649882662101,27.9683261259867,0 -15.6006484862255,27.9684479531496,0 -15.6006219554392,27.968514944123601,0 -15.6006114733374,27.9685651469268,0 -15.600584718696799,27.968591536061599,0 -15.6004722259609,27.968597747474899,0 -15.6004707145563,27.968616383212598,0 -15.600552993559999,27.968691987725801,0 -15.600634414339099,27.968738911552201,0 -15.6006824201011,27.968746356934499,0 -15.600713518172601,27.968741432315898,0 -15.600716889092,27.968767212419301,0 -15.6006814835992,27.968785996129501,0 -15.600676823534,27.9688189769725,0 -15.6006607863906,27.968837676123101,0 -15.6006155654589,27.968818301054899,0 -15.6005994611458,27.968839377316201,0 -15.6005413718927,27.9688424969526,0 -15.600510957080299,27.968873690902502,0 -15.600449562026199,27.9689599415712,0 -15.600361199526001,27.969034367985099,0 -15.600280828278899,27.969094429024299,0 -15.6002171129155,27.969164914927799,0 -15.6002088570356,27.969214163756899,0 -15.6002288081951,27.969236516187301,0 -15.6002841794321,27.969213835167601,0 -15.6002684223954,27.969283168529699,0 -15.6002920485889,27.9692892625315,0 -15.600351760571,27.969287569414401,0 -15.6003648315181,27.969316173292601,0 -15.600392388647199,27.969337548280699,0 -15.6003764476346,27.969359125707498,0 -15.600363542194099,27.969374934235098,0 -15.600286100037099,27.969381004298999,0 -15.600281377391999,27.969402520133801,0 -15.600282731746599,27.969438352548998,0 -15.6002542157898,27.969452795673099,0 -15.600239824752601,27.969477219775499,0 -15.600253471629999,27.9694981905789,0 -15.600304584671299,27.9695127638388,0 -15.6003351240367,27.969489701868,0 -15.600372207821399,27.969482374383599,0 -15.6003906391824,27.969492814995501,0 -15.6004142522108,27.9694965213762,0 -15.600475403294601,27.969463294924299,0 -15.6004932217198,27.9694746815249,0 -15.600482129206201,27.9695119891168,0 -15.600480825089599,27.969567883128999,0 -15.600437412047199,27.969598166989901,0 -15.6003922188572,27.969598364199499,0 -15.600367591974299,27.9696238376903,0 -15.600353878445301,27.969670183765999,0 -15.600292811736599,27.969801347957201,0 -15.600282261181301,27.969853926949501,0 -15.6002132859378,27.969931612306901,0 -15.600131420975201,27.970013652536199,0 -15.600046367437701,27.970102873203899,0 -15.5998837362422,27.970173801128102,0 -15.5996737532104,27.970229184836899,0 -15.599580777856101,27.970262537885599,0 -15.5995464821934,27.970291109925999,0 -15.599537562320201,27.970328646289001,0 -15.599531969910901,27.9703731072516,0 -15.5994786836375,27.9704664878318,0 -15.599403650754599,27.970519359425701,0 -15.599310620855899,27.970647044381099,0 -15.599258743988401,27.970696721459699,0 -15.599214145355999,27.970790075834099,0 -15.5991876659184,27.970866620539098,0 -15.599128879813501,27.970938528802801,0 -15.5990740297438,27.970992626670999,0 -15.599051354046701,27.971027237646901,0 -15.599040910569601,27.9710846049304,0 -15.599038480259599,27.9711462242742,0 -15.599056496708499,27.971193436778801,0 -15.5990954387138,27.971215730148799,0 -15.599154673612,27.971225026448,0 -15.5992019606431,27.971228629936601,0 -15.599227880730799,27.9712457135942,0 -15.599295719072099,27.9712540163966,0 -15.5993536498249,27.9712074408089,0 -15.5994312150669,27.971125896401102,0 -15.5995089376105,27.971073013072601,0 -15.599661957323899,27.971015024429601,0 -15.5996995281977,27.9710129379135,0 -15.5997428057962,27.971040944383599,0 -15.5997968064083,27.9710765355684,0 -15.5998254315447,27.971110791225399,0 -15.5999360297011,27.971165242268899,0 -15.6001271208633,27.971181127916399,0 -15.600290940141701,27.971130257148101,0 -15.6005030621768,27.971057679249299,0 -15.600748484699199,27.970960127616699,0 -15.6008555592565,27.970864124019801,0 -15.6009358123647,27.970782567036999,0 -15.600988530080301,27.970795221995999,0 -15.601030006419,27.970789321278801,0 -15.601059756187899,27.9708178522217,0 -15.6010681436622,27.970875137384098,0 -15.601097973906001,27.9709179984171,0 -15.6011585629244,27.970894792343501,0 -15.6011641746283,27.970935370617301,0 -15.601170976874601,27.9709845545969,0 -15.601213092500901,27.971025917595,0 -15.6012680325099,27.9710223456294,0 -15.6013436607325,27.971076948350898,0 -15.601352286755301,27.971177223798598,0 -15.601432977811401,27.971174482541599,0 -15.601412065845899,27.971284441333399,0 -15.6014684384783,27.971262698784798,0 -15.6015434708395,27.971209826078098,0 -15.601595724116899,27.971138888693499,0 -15.6016333462237,27.9711315585118,0 -15.6016550131753,27.971157736106701,0 -15.601651021911801,27.971199802483302,0 -15.6016245583708,27.971278735221201,0 -15.601699789424901,27.971261687232602,0 -15.6017134253302,27.971295065614498,0 -15.6017340597902,27.971343687162999,0 -15.601719546951999,27.971428789999099,0 -15.601705422786001,27.971515777787499,0 -15.601674517431199,27.9715555733043,0 -15.6016134663163,27.971703921872098,0 -15.601595337475199,27.971830586616601,0 -15.6016120346967,27.971930826742199,0 -15.601652493129301,27.971949757390501,0 -15.601760044922299,27.9719397337003,0 -15.6018140466291,27.971975323168699,0 -15.6018707651823,27.972015677847001,0 -15.6019730159622,27.972020007626298,0 -15.602027176884601,27.972084258109302,0 -15.6019792317824,27.9721704505743,0 -15.601955299485001,27.972220712298999,0 -15.601937011889801,27.9723187168773,0 -15.602068324934301,27.9722273825193,0 -15.602129959179599,27.9721841214552,0 -15.602186319885201,27.972159991008301,0 -15.602221185685799,27.972140730839001,0 -15.602390331889501,27.972080280023299,0 -15.602454577630199,27.972022676935001,0 -15.6025081141686,27.971974674044699,0 -15.602532737193499,27.972048607003799,0 -15.602562461161201,27.972072360605001,0 -15.602605225244,27.972022017200299,0 -15.6026826813791,27.971921364807699,0 -15.6027019637298,27.9720024859019,0 -15.602781874754299,27.971935952181202,0 -15.6028308907962,27.971966095403801,0 -15.6028955600936,27.971984918699,0 -15.6029437168377,27.971936939215301,0 -15.6030025417678,27.9718721948582,0 -15.603061790604301,27.971883877060701,0 -15.603110345696599,27.971907548001798,0 -15.603150405879401,27.971854827724499,0 -15.603217459913299,27.971818707190199,0 -15.6032735401594,27.971744420519801,0 -15.6033194192501,27.971770492581999,0 -15.603335905452401,27.9718325182839,0 -15.6033629791034,27.9718634490076,0 -15.6033738854393,27.9718896744142,0 -15.6033633378769,27.971927934889401,0 -15.603309893737199,27.971992656706298,0 -15.6032834976579,27.9720835313341,0 -15.6032246993623,27.972153053710699,0 -15.603182095945201,27.972232057489698,0 -15.6031503456644,27.9723277335825,0 -15.603056828535699,27.972442787075,0 -15.6030841147793,27.9725119320386,0 -15.603106021444299,27.972581099674901,0 -15.6031920930886,27.972578333789201,0 -15.6032696553499,27.9724967881704,0 -15.603307689699699,27.972563496498701,0 -15.603364527688401,27.972625346141399,0 -15.6034257895171,27.972515210129298,0 -15.6035146045774,27.972521986241102,0 -15.603550041819799,27.972605424893899,0 -15.6036384980126,27.972547715052102,0 -15.6037139413256,27.9725688801452,0 -15.6038213482407,27.972532582243701,0 -15.603893901764501,27.9725179333611,0 -15.6040349568382,27.972451381481299,0 -15.604088892000499,27.972475029352299,0 -15.6041370750337,27.972431826457498,0 -15.6041593481023,27.9723591331115,0 -15.604257626109799,27.9723405372863,0 -15.604338037404601,27.9722876385439,0 -15.6044114762687,27.972224274633302,0 -15.604474968579201,27.972239269465302,0 -15.6045133821732,27.972166504246299,0 -15.604583605570999,27.972216352685201,0 -15.6046181513771,27.972139771547901,0 -15.6046844405043,27.9721738615509,0 -15.604708358199099,27.972121210871901,0 -15.604834515476099,27.972067033846201,0 -15.604942964701101,27.9720141468996,0 -15.6050501441158,27.9719372462765,0 -15.6051613122867,27.9718182800252,0 -15.6052790115614,27.971698341626102,0 -15.6054196492797,27.971625127310201,0 -15.605788724388001,27.971236579925002,0 -15.605954777521699,27.971104486160598,0 -15.6060889761415,27.971048961853899,0 -15.6061858732806,27.971058088306499,0 -15.6063127897056,27.971143511735001,0 -15.6063909895748,27.971176605106599,0 -15.6064505599127,27.971245606202299,0 -15.6065493297054,27.971315377793399,0 -15.606651594319599,27.971322092597401,0 -15.606803284685,27.971301372796301,0 -15.6069353953131,27.971353335636501,0 -15.6069930657473,27.9712895371147,0 -15.6070414476103,27.9712821579886,0 -15.6071236225268,27.971338174744599,0 -15.6072246963236,27.971338672031401,0 -15.6073280716094,27.9713372724317,0 -15.6074919410808,27.971295945326599,0 -15.607607375097,27.971252444279799,0 -15.6077540332547,27.971226467540699,0 -15.6078560033381,27.971180637202099,0 -15.6079100200085,27.971218613656799,0 -15.607874571793401,27.971294812327901,0 -15.6078780292179,27.971314845224999,0 -15.6078793040089,27.971335484453,0 -15.607890588620601,27.971349742467702,0 -15.6079100039645,27.971356147133001,0 -15.607955060747701,27.9713587012983,0 -15.607993345075799,27.9713647337087,0 -15.6080189356167,27.971377195301098,0 -15.608047870489401,27.971398578886699,0 -15.6080656573765,27.971411941553701,0 -15.6080752796904,27.9714126121644,0 -15.608099264598,27.971384965537599,0 -15.6081533971255,27.9713599822331,0 -15.608176614624201,27.9713554112178,0 -15.608200567137599,27.971358618265199,0 -15.608212471724199,27.971367385067001,0 -15.6081909031808,27.971415609923501,0 -15.6082072447689,27.971451364234898,0 -15.608207877741901,27.9715018632576,0 -15.6081784573144,27.971594795876399,0 -15.6081439276001,27.9716737663692,0 -15.608125351061,27.971719228350601,0 -15.6081068682479,27.9717814080078,0 -15.6081098895369,27.971873064324299,0 -15.6080994693554,27.9718969327586,0 -15.6080624054648,27.971934513681202,0 -15.6080288703501,27.971955884475602,0 -15.607971253863299,27.971983734772198,0 -15.607942618502801,27.972008550280702,0 -15.607941589822101,27.972031817527998,0 -15.6079512818213,27.972044909056301,0 -15.607956345866601,27.972052261777499,0 -15.6079728671328,27.972064745396001,0 -15.607992925145,27.972076942572102,0 -15.6080280063619,27.972091943955199,0 -15.6080402072218,27.972095509881498,0 -15.6080641760918,27.9721016055333,0 -15.6080965069975,27.972097571983799,0 -15.608140892392401,27.972089134108,0 -15.608221420534001,27.9720603465524,0 -15.608261786353999,27.9720625557554,0 -15.6083265325134,27.972122642389799,0 -15.6083616964076,27.972128989994001,0 -15.6083903095822,27.972062170744302,0 -15.6084151107636,27.9720594901701,0 -15.6084555827715,27.972080806397301,0 -15.6085232113979,27.972147383274699,0 -15.608563523646399,27.972140039301902,0 -15.6086036606333,27.972101647564699,0 -15.6086218541002,27.972021650638101,0 -15.608648924515601,27.9720178523649,0 -15.6086868000975,27.972055899906199,0 -15.6087297757883,27.9720437678913,0 -15.6087940572845,27.971993326489201,0 -15.6088344096837,27.971993147929801,0 -15.608902039812,27.972032797835499,0 -15.608946162346401,27.972029532459299,0 -15.608994502195999,27.972037271328599,0 -15.6090210966707,27.972047399308401,0 -15.609056781672001,27.9720612603471,0 -15.609085948191201,27.972065888484099,0 -15.6091130863082,27.9720641886083,0 -15.609158138543499,27.972058636107999,0 -15.6091722639939,27.972057282699101,0 -15.6092024049653,27.9720616176314,0 -15.609249833685601,27.9720809150642,0 -15.6092927739553,27.9721048361511,0 -15.609298793067399,27.972108429340999,0 -15.609357379727401,27.972137480694499,0 -15.6093895686494,27.972166089269201,0 -15.6094329317375,27.972207340367,0 -15.609474216104401,27.972233308843101,0 -15.6095187508016,27.972251445485298,0 -15.609562524413599,27.972257182323901,0 -15.609606929235101,27.9722522102754,0 -15.609617152035501,27.972251162977901,0 -15.609654729211799,27.9722470877626,0 -15.609714710624299,27.972242064710699,0 -15.6097841760918,27.972238425872099,0 -15.609849747050299,27.972243777144499,0 -15.6099284265019,27.972258584780601,0 -15.609994392701701,27.972276355446201,0 -15.6100588019507,27.972299314507499,0 -15.610132015451899,27.972332940570698,0 -15.610183098087701,27.972358269594199,0 -15.6102001989188,27.972365279981599,0 -15.6102639705506,27.972390552696901,0 -15.6103119999191,27.972400892265998,0 -15.6103847515597,27.972403015854798,0 -15.610441572118001,27.9724144718381,0 -15.6104596603482,27.972416260180001,0 -15.610510268218199,27.9724222552572,0 -15.610617710195401,27.972417547479299,0 -15.6106877078573,27.972426790122402,0 -15.610754987309701,27.972431268587101,0 -15.6108170361637,27.972462042550699,0 -15.6109424855082,27.972558466694501,0 -15.6110122938794,27.972534272937398,0 -15.6110833559111,27.972480850327202,0 -15.6111398929289,27.972467773579702,0 -15.611228896788401,27.9725079809409,0 -15.6113369742058,27.972591095692099,0 -15.6114743862836,27.972628699230199,0 -15.611575760314199,27.9727491144378,0 -15.6116512753148,27.972857152907999,0 -15.6117074776122,27.972935767798301,0 -15.6117683501947,27.973030090616401,0 -15.611818676315799,27.973095297541398,0 -15.611899502157399,27.973116433282499,0 -15.6120150440884,27.973092035607401,0 -15.6121328313912,27.972988810030198,0 -15.612243645316701,27.972875117837301,0 -15.6123253218848,27.972775384666999,0 -15.6124928311991,27.972697266461299,0 -15.612553216308401,27.972638230675699,0 -15.612593163157999,27.9725664006667,0 -15.612639827837199,27.972531841375201,0 -15.6127570998244,27.972537009776602,0 -15.6128604366248,27.972528441415498,0 -15.613009379398299,27.972430795845401,0 -15.613133790861999,27.972343315565301,0 -15.613172721555401,27.972296316993699,0 -15.6132382068343,27.972254479069399,0 -15.6133715079374,27.972245274864299,0 -15.6135437174669,27.9722516717835,0 -15.6137385044784,27.972240306367201,0 -15.613783031743701,27.972231496836699,0 -15.613872592197399,27.972165667460999,0 -15.614001177437199,27.972069556886801,0 -15.6140946013461,27.9719401660705,0 -15.614173762067599,27.971871492459499,0 -15.6142891803696,27.971825597347902,0 -15.614491941629399,27.9717974753835,0 -15.6145424585577,27.971692160543402,0 -15.614514799875799,27.971558533108499,0 -15.614562423375601,27.971417403754401,0 -15.6146478033211,27.971292824702299,0 -15.614617914552101,27.971240413614002,0 -15.614517730929601,27.971126217668299,0 -15.6145174602678,27.971078450475598,0 -15.6145506574957,27.9709693782928,0 -15.614536774112899,27.970893011942501,0 -15.6145553748762,27.9708523252223,0 -15.614549588341101,27.970780698914801,0 -15.6145707575395,27.970718505525099,0 -15.6146362267722,27.970674278459001,0 -15.6146509729996,27.970632164617399,0 -15.614632874299801,27.970557261431299,0 -15.614617690342699,27.970455571010898,0 -15.6146197985972,27.9703528600173,0 -15.6146438464065,27.9703240917298,0 -15.614563348290099,27.970156319007401,0 -15.6146074415326,27.9700710827872,0 -15.6146338682255,27.969987370701499,0 -15.6146637297133,27.969831046874699,0 -15.614745565254299,27.969759972430499,0 -15.6148159539937,27.969634516913501,0 -15.6148493816984,27.969566047259899,0 -15.614979330354901,27.9695072014513,0 -15.6149818174485,27.969471363801699,0 -15.6149869406068,27.969425961951401,0 -15.615012310998701,27.969359915924201,0 -15.6150319265547,27.969294397519299,0 -15.6149469235871,27.9692145152869,0 -15.6148158823424,27.969147281600002,0 -15.6147370858637,27.969009106437799,0 -15.6146398515921,27.968940276302298,0 -15.614436648192999,27.968889582566401,0 -15.614240220542399,27.968880906259599,0 -15.614148894546499,27.9689051976769,0 -15.614023477968299,27.9688809303262,0 -15.6138891375303,27.968910190631298,0 -15.6138138155349,27.9689105266647,0 -15.613745224317499,27.968878337975902,0 -15.6136468295827,27.968875444949202,0 -15.6136088443143,27.9688182926058,0 -15.613552178242999,27.968787495868199,0 -15.6134647837246,27.968760167994901,0 -15.6134162548798,27.9687412768006,0 -15.6133731054642,27.9687223625115,0 -15.6133488145533,27.968708140356402,0 -15.613305435574301,27.968648623411699,0 -15.613220235546301,27.9686002913955,0 -15.613111226102699,27.968556340628801,0 -15.6130047485613,27.968551094598102,0 -15.6129121763962,27.968559615981999,0 -15.612821622168401,27.9685160846788,0 -15.6126891085968,27.9683924770647,0 -15.612711264810599,27.968233298350299,0 -15.612670293265101,27.968123613486899,0 -15.6125864436061,27.9680427812904,0 -15.612493254707401,27.968008814816599,0 -15.6124315596026,27.9680401388642,0 -15.6123738234892,27.9680246201583,0 -15.6122779849238,27.967997831001199,0 -15.6121679771251,27.968048476554401,0 -15.6120731598738,27.9681358252301,0 -15.611961531458199,27.968171204062202,0 -15.611829814138501,27.968188508806399,0 -15.6117317270709,27.9681731692468,0 -15.6116376166012,27.968180753283299,0 -15.611541831930101,27.968163516700098,0 -15.611426160482001,27.968164030744699,0 -15.611276869555001,27.968132199380499,0 -15.611225893419901,27.9681563096002,0 -15.6111074510361,27.968142505244199,0 -15.6110294269021,27.968140464093398,0 -15.610920285528101,27.9681400053875,0 -15.6108122273949,27.968059278673401,0 -15.6107208330193,27.968071626237698,0 -15.610649445462601,27.968020341741699,0 -15.6105992444759,27.967976629866602,0 -15.610566251622799,27.967850189940702,0 -15.610512397065101,27.967840875571401,0 -15.6104823902785,27.967766967932601,0 -15.6104128123112,27.9678317640562,0 -15.610329757432201,27.967891842808299,0 -15.610273642683699,27.967958966799198,0 -15.6102460669664,27.967994021078201,0 -15.6102147580725,27.9680117735107,0 -15.610125758294,27.967971564500399,0 -15.610031594131399,27.967969593445101,0 -15.6099779678866,27.9680008806274,0 -15.610042864339899,27.968060303254099,0 -15.6100700060802,27.9681031742473,0 -15.610038101851201,27.9681701917008,0 -15.6100250279738,27.968237124762599,0 -15.610038934683599,27.968318269551901,0 -15.610030036782801,27.968376574097899,0 -15.609988280538699,27.9683996996595,0 -15.6098938071239,27.968342796671699,0 -15.6098330587078,27.968269968477799,0 -15.6096985432808,27.968268176029099,0 -15.609519314958099,27.968241754424,0 -15.609263868328499,27.968261993307099,0 -15.6090159155632,27.9681794968802,0 -15.6088693144531,27.968147650990399,0 -15.6087293125588,27.968126774308701,0 -15.608640567858499,27.968131944000898,0 -15.6084606973929,27.968197226063602,0 -15.608376530313,27.968332794582299,0 -15.608231723761,27.968414641217599,0 -15.6080733320434,27.9684726630617,0 -15.6079547290165,27.968430195810399,0 -15.607758021493799,27.968371354456998,0 -15.607574336072799,27.968236025970999,0 -15.6074717265508,27.968167215339498,0 -15.607352093733599,27.9681471906529,0 -15.6072105659894,27.968127765291499,0 -15.607275367425901,27.968170470652701,0 -15.607334936629501,27.968239471412598,0 -15.607201839375699,27.968217118369999,0 -15.607135819302499,27.968230796813501,0 -15.607041801961801,27.968255095402402,0 -15.6069102172985,27.968296278639301,0 -15.6067865417997,27.968308765978001,0 -15.606697544023699,27.968268555633902,0 -15.6065922448111,27.9681997562002,0 -15.6064993651908,27.968153340489899,0 -15.606152954035,27.9680559990455,0 -15.606019658079999,27.967997819154,0 -15.605957507396599,27.967947935843998,0 -15.6059154579214,27.967918516789201,0 -15.6058120314808,27.967910362184401,0 -15.6057364976743,27.967872479585399,0 -15.6056393767127,27.9678227509728,0 -15.605473172319,27.967719837379001,0 -15.605362268437,27.967610457948599,0 -15.6051007624747,27.9675089064635,0 -15.6046480398141,27.967367592061098,0 -15.604445703710301,27.967263390735202,0 -15.604262183897401,27.9671567179176,0 -15.6041135538612,27.967035561222399,0 -15.603986751408099,27.9669692427142,0 -15.603755171445,27.966927267649901,0 -15.603453837276801,27.966919035246502,0 -15.603257315667699,27.966685391116702,0 -15.603156369518899,27.966638506568099,0 -15.6030430699983,27.966581681323198,0 -15.6029538493041,27.966500866681798,0 -15.6028590217496,27.9663794728298,0 -15.602758921285499,27.966277209583399,0 -15.6026588210106,27.966174946259802,0 -15.602529423143601,27.966125355861799,0 -15.6024028216539,27.9660948606777,0 -15.602248988231599,27.9660047741677,0 -15.602099278574499,27.965896506088299,0 -15.601989953794799,27.965862603034299,0 -15.6018605433493,27.965810624394699,0 -15.601744159994,27.965796381361301,0 -15.601712793206101,27.965847096247099,0 -15.599875874992399,27.976074463904901,0 -15.599828464116399,27.976010444070901,0 -15.599795294992999,27.975949059410802,0 -15.5998012648,27.975709392277299,0 -15.5998041964728,27.975579844930301,0 -15.599803587424701,27.975469741939499,0 -15.599752091049799,27.975392245343802,0 -15.599678493791901,27.975275984512599,0 -15.599648794084301,27.975182201040401,0 -15.5996081878826,27.975095149626799,0 -15.599560519055601,27.975050019914601,0 -15.5994706523029,27.975018876426699,0 -15.5993776386289,27.974960141864901,0 -15.5993299510436,27.974911774148399,0 -15.599205651955799,27.974817920602,0 -15.5992402815709,27.974755670872401,0 -15.5992481008831,27.974710256919099,0 -15.5992893527738,27.974697675865801,0 -15.599347164168901,27.974623842715999,0 -15.599325365051,27.9745737806699,0 -15.5992713628308,27.9745381902455,0 -15.599225101774699,27.9744428548372,0 -15.599171073257301,27.974402487369801,0 -15.5991413097781,27.9743715675401,0 -15.5991383818883,27.974328588951401,0 -15.5991220296251,27.974290445939701,0 -15.5991218448832,27.974257008734401,0 -15.599137814455601,27.974225889737902,0 -15.5991646763866,27.974218607079699,0 -15.5992156713135,27.974196889764301,0 -15.599293674339,27.9741941614453,0 -15.599350062115899,27.974174808244399,0 -15.5994119097974,27.974169762581699,0 -15.5994653837489,27.974109819247801,0 -15.5995280029175,27.974061332895999,0 -15.599593386593,27.974049426529401,0 -15.5996747699823,27.974027700273801,0 -15.599688049012601,27.973996592942001,0 -15.599711956330699,27.9739415555036,0 -15.599738752825299,27.973903525071901,0 -15.5997059319957,27.973886235999501,0 -15.599700731139601,27.973871710671201,0 -15.5997170715811,27.973802711574301,0 -15.599709488478201,27.9737128189314,0 -15.599694906647599,27.973568093973999,0 -15.5996004197139,27.973508795450101,0 -15.599452354672,27.973490334002999,0 -15.5994331140606,27.9734163770371,0 -15.599437755407701,27.973282605665101,0 -15.5995113631405,27.972971791286799,0 -15.5996038139393,27.972872017686601,0 -15.599700316024499,27.9728094981708,0 -15.5997926146081,27.972750830703198,0 -15.5998043991752,27.972658575188699,0 -15.599851085181299,27.9726216017486,0 -15.599903379874,27.9725578295938,0 -15.5999350548437,27.9724478250026,0 -15.599908099896799,27.9724383883025,0 -15.5998607885415,27.972430486485901,0 -15.599900559847701,27.9723252228154,0 -15.599901318823401,27.9721852468954,0 -15.599962743533199,27.9721037725716,0 -15.599894282298701,27.972088291799199,0 -15.5999058802992,27.972037145389098,0 -15.5999551627995,27.971983441583401,0 -15.599925439416699,27.971959687409299,0 -15.5999467097524,27.971914214751202,0 -15.599907817527001,27.971900997213599,0 -15.599801389974999,27.971905295013801,0 -15.5997984486995,27.9718599279256,0 -15.5998303075053,27.971783359663799,0 -15.599777978089699,27.971772588325901,0 -15.599720052155501,27.971791005071399,0 -15.599678799872599,27.971837508117801,0 -15.5996477219973,27.971846254478098,0 -15.5996567766848,27.971746844281999,0 -15.599672349554501,27.971644074691099,0 -15.5996908768222,27.971589060692299,0 -15.5996877903316,27.971517421888102,0 -15.5996528846464,27.971529515916501,0 -15.599603279561901,27.9715932762603,0 -15.599575214672001,27.971591953332801,0 -15.5995508710372,27.971568174727601,0 -15.599569239906,27.971484500530899,0 -15.5995313930681,27.971451227430801,0 -15.599478702613499,27.971443348915798,0 -15.599489093077,27.971376427598699,0 -15.599534349554199,27.971290247689101,0 -15.5995973653222,27.9712192641516,0 -15.5998254315447,27.971110791225399,0 -15.6086340639967,27.958088598274198,0 -15.6086011252559,27.958059640675302,0 -15.6085957835627,27.9580561446435,0 -15.6085666976126,27.958037107895201,0 -15.608525781435199,27.958025021028501,0 -15.6084804243087,27.9580259347035,0 -15.6084415750319,27.958034348166098,0 -15.6082956637675,27.958079551636999,0 -15.6083236893012,27.958161147081899,0 -15.608306564482501,27.958233943004899,0 -15.6082979967982,27.9583762176301,0 -15.608298411854699,27.958450256685499,0 -15.6082778434226,27.958480580136399,0 -15.608221248516999,27.958528349629699,0 -15.6081511023375,27.958563163758601,0 -15.6081459365803,27.9586014008589,0 -15.608140744052101,27.958634861857,0 -15.608128343949501,27.958662410380398,0 -15.6080950793552,27.958695227210701,0 -15.6080384509791,27.958737057871499,0 -15.6079719216703,27.958802691481601,0 -15.607931967643299,27.958835537823301,0 -15.607892096786101,27.9588832342105,0 -15.6078754722299,27.958901127064902,0 -15.607852225889101,27.9589309296836,0 -15.6078090259054,27.9589816106547,0 -15.607762482220799,27.959032306378099,0 -15.6077158376724,27.959065182202899,0 -15.6076778697071,27.959076374605999,0 -15.607591715322499,27.959062424519601,0 -15.607562368340901,27.959105545473001,0 -15.6075356310786,27.959134324434402,0 -15.6075250985027,27.959174974666102,0 -15.607503794657401,27.9592132829791,0 -15.6074474151094,27.959232639423199,0 -15.607393725521099,27.959251983972699,0 -15.6073561346728,27.9592640917732,0 -15.6073146444804,27.959298816027299,0 -15.607270328729999,27.959312238934,0 -15.6072303419128,27.9593769020114,0 -15.60721718706,27.9594295056934,0 -15.607195788482899,27.959451095350602,0 -15.607160900893801,27.959465579733202,0 -15.607120620975399,27.959477699333501,0 -15.607086000625699,27.9595399510367,0 -15.607083711522501,27.959611613459799,0 -15.6070785319873,27.9596474629213,0 -15.6070841124134,27.959683264919001,0 -15.607070904001301,27.9597263145772,0 -15.6070495855103,27.9597622343233,0 -15.6070282937304,27.959802931070701,0 -15.606993593061301,27.9598508526392,0 -15.606972315621499,27.959893937875801,0 -15.6069590804237,27.959932211421201,0 -15.6069486143539,27.9599848023147,0 -15.6069409461721,27.9600564884547,0 -15.6069466858812,27.960120950682199,0 -15.6069657553683,27.9601638579731,0 -15.6069739456267,27.960185317998501,0 -15.606982121504901,27.960204388622799,0 -15.606990914608501,27.960222752413401,0 -15.606991155109201,27.960265742744301,0 -15.606987500891,27.960333828338499,0 -15.6069916361123,27.960351723405299,0 -15.6069916962366,27.960362470762099,0 -15.60700825616,27.960437632882002,0 -15.6070084565873,27.9604734586079,0 -15.6070205806631,27.9604769879735,0 -15.607008737180101,27.960523613540602,0 -15.607033185775,27.960566497092898,0 -15.607035580286601,27.960624514299699,0 -15.607069930827199,27.9606364446004,0 -15.607069533429501,27.960649002998402,0 -15.6070574307047,27.960670008198498,0 -15.6070100020426,27.960707905389899,0 -15.606988414828299,27.960719997570301,0 -15.6068921326757,27.9607482887393,0 -15.606839324086399,27.960762251771101,0 -15.606815111813001,27.960763071670598,0 -15.6067883840087,27.960786741127301,0 -15.606767505734499,27.960801989619799,0 -15.6067504245432,27.960805395915401,0 -15.6067197332479,27.960811155085501,0 -15.6066401980012,27.9608162810195,0 -15.606614959677801,27.9608081505597,0 -15.6065912734976,27.9607939651214,0 -15.6065689372564,27.960781200004998,0 -15.6065456264707,27.9607759677512,0 -15.606500939803,27.960780633090099,0 -15.606465373292,27.960794519991701,0 -15.606409900045101,27.960815957275599,0 -15.606358899505899,27.960835289578899,0 -15.6063053023483,27.960871351425101,0 -15.6062651542527,27.960907354906599,0 -15.606243480301799,27.9609334221506,0 -15.606224748242701,27.960932502663098,0 -15.6062109382217,27.960931832303899,0 -15.6061764963806,27.9609268530305,0 -15.606136068021501,27.9609127006348,0 -15.606100899636401,27.9608770289144,0 -15.606081830358001,27.9608341215047,0 -15.606075049577299,27.960807794145602,0 -15.6060628645773,27.960806827748701,0 -15.6060483988581,27.960812533367701,0 -15.606019437397199,27.960836772191399,0 -15.605990193928699,27.960876051339302,0 -15.6059810126618,27.9608886484131,0 -15.605923400376801,27.960974559892801,0 -15.605881363482499,27.9610459414214,0 -15.605839928553101,27.961115894011002,0 -15.605825872219,27.961129379133698,0 -15.605816635831101,27.9611393946989,0 -15.6057878533521,27.961176959340602,0 -15.6057909834476,27.961255763563798,0 -15.605802089275199,27.961317812749801,0 -15.605834647694101,27.9613678264969,0 -15.605910044592701,27.961381825023899,0 -15.605947876438201,27.961412707940099,0 -15.605977334907699,27.961453397706599,0 -15.605992190346299,27.961466484724198,0 -15.606052559940901,27.961524705221599,0 -15.6060932645923,27.961564254062999,0 -15.6061252260368,27.961603823346401,0 -15.6061458718792,27.961663392271198,0 -15.6061471106869,27.961677676655199,0 -15.606141799177699,27.961691430212401,0 -15.606115179340801,27.961727213382201,0 -15.6061085374727,27.961735773209199,0 -15.6060511390695,27.961794512335,0 -15.6060013719298,27.9618399986024,0 -15.605968491129801,27.9619086894871,0 -15.605944211157899,27.961962967799199,0 -15.6059282285787,27.9619810832694,0 -15.6059179758174,27.961983881665901,0 -15.605908710564499,27.961981458071499,0 -15.605896473576401,27.9619784878826,0 -15.605878277173,27.961955184292499,0 -15.605856597759701,27.9619266188129,0 -15.605810816661901,27.961917267014201,0 -15.605775821410001,27.961912643941599,0 -15.6057057775862,27.961893845566301,0 -15.605673552390799,27.9619035407379,0 -15.6056440572365,27.96192038957,0 -15.605606518589701,27.961942050011601,0 -15.605571510010799,27.9619350392875,0 -15.6055418548692,27.961923227876799,0 -15.605512239720101,27.9619185810636,0 -15.605479974515299,27.9619211115862,0 -15.6054613984412,27.9619665732634,0 -15.6053726985539,27.961978905379901,0 -15.6053406465384,27.962019649198702,0 -15.6052979818902,27.9620867129562,0 -15.6052121584605,27.962132470365599,0 -15.6051666704104,27.962175661793299,0 -15.6051854501536,27.9622419579111,0 -15.6052080307166,27.962356998795499,0 -15.605219070742599,27.962407107312099,0 -15.605248979141299,27.962464297623299,0 -15.605290387776501,27.962505735672298,0 -15.605294531880199,27.962515963160801,0 -15.6053049085293,27.9625426466514,0 -15.6053226151431,27.962592966856899,0 -15.6053146958624,27.962671800723299,0 -15.605395563524601,27.9627226356594,0 -15.6054401981445,27.962766789251901,0 -15.6054747139908,27.962797681460501,0 -15.605480089858499,27.9628027219896,0 -15.6054936717758,27.9628134856783,0 -15.6054975048293,27.962833554025899,0 -15.6054988241766,27.962862281358799,0 -15.605497711186301,27.9628705279634,0 -15.6054677827427,27.9628965041219,0 -15.6054176416487,27.962922298386601,0 -15.605385659643201,27.962930085004999,0 -15.6053802786688,27.962931417600601,0 -15.605330113633901,27.9629456392456,0 -15.6053192117172,27.962948729319699,0 -15.605279729376999,27.962953371379101,0 -15.605243095762599,27.9629510861688,0 -15.6052077959783,27.962947332698601,0 -15.6051698304322,27.962939564872599,0 -15.6051230699888,27.9629225739438,0 -15.605110845803299,27.962921914557999,0 -15.605041631724401,27.962907066058101,0 -15.6050067161001,27.962916773807802,0 -15.6050473038924,27.9629595867459,0 -15.605055520632501,27.962985822980901,0 -15.605058410511401,27.9630216368788,0 -15.605045053371899,27.9630384137254,0 -15.6050532967596,27.9630694269642,0 -15.6050856555638,27.963083615148101,0 -15.605115882488199,27.963092169882099,0 -15.605163815573601,27.963144397304799,0 -15.605174915945099,27.963171593967701,0 -15.605175075819099,27.963200254185701,0 -15.6051752623406,27.9632336914074,0 -15.605124735875799,27.963254049359399,0 -15.605107735088801,27.963264658696598,0 -15.605084103334899,27.963260294211501,0 -15.6050526784284,27.963251324077401,0 -15.6050446980079,27.9632532458211,0 -15.6050344808357,27.9632551593443,0 -15.605028141568001,27.963259673665199,0 -15.605025492387901,27.9632768638111,0 -15.605016982984999,27.9633108167966,0 -15.6049829643932,27.963468280056201,0 -15.6049655058944,27.963520795007899,0 -15.6049031143662,27.963633753182101,0 -15.6048663684121,27.9637377268104,0 -15.604858244609,27.9637722910274,0 -15.6048547192452,27.9638073947099,0 -15.604855704751101,27.9638419188874,0 -15.6048609585406,27.963876117383801,0 -15.604889022397201,27.9639824501593,0 -15.6049033903689,27.964017475188101,0 -15.604924850958099,27.964048154101601,0 -15.604897775120399,27.964123401738401,0 -15.6048224163782,27.964116568195401,0 -15.604825306212801,27.964152381190399,0 -15.6048383091742,27.9641902142242,0 -15.604848679438,27.9642157423065,0 -15.6048663297596,27.964255952497499,0 -15.604885268245701,27.9643010857985,0 -15.6048877583316,27.964306409845801,0 -15.6049265325631,27.9643497227522,0 -15.604944078234499,27.9643711571062,0 -15.6049472702434,27.9643929614789,0 -15.604939404399399,27.964408152492101,0 -15.6049231117732,27.964436397569798,0 -15.6049000453951,27.964467831892701,0 -15.6048917910891,27.9644789985419,0 -15.604869953562501,27.964555779409,0 -15.6048416138321,27.9646406951518,0 -15.6047923629192,27.964686822344198,0 -15.604753169498901,27.964723529814702,0 -15.6047022344114,27.964754803127502,0 -15.6047106365871,27.9648144765968,0 -15.604764582388,27.964840511880599,0 -15.6048723931473,27.964878252281501,0 -15.6049481253519,27.9649519602177,0 -15.6049457548799,27.9650092924674,0 -15.6049220242373,27.965095379531402,0 -15.6048930741359,27.9652101513507,0 -15.604928350108199,27.965264929547001,0 -15.6049796859729,27.9653053066715,0 -15.6049692061753,27.965355509793699,0 -15.604996425152899,27.965412711951501,0 -15.6049832818547,27.965467703001199,0 -15.605002378195101,27.9655153875309,0 -15.6050885240971,27.965526950648901,0 -15.605179995979,27.965528936953501,0 -15.6052818819207,27.965468778447899,0 -15.605365084438001,27.965434974413402,0 -15.605432307079001,27.965429902451099,0 -15.6055131660058,27.9654582075799,0 -15.605593459291899,27.965452567994198,0 -15.605656732730999,27.965447803070699,0 -15.6056861853322,27.965453026481299,0 -15.605688010293999,27.965455753647301,0 -15.6056901297042,27.9654602307664,0 -15.6056874999366,27.965480887224,0 -15.6056711879978,27.965505666080201,0 -15.6056390024828,27.9655354074645,0 -15.605588304690601,27.965578247331099,0 -15.605560963726299,27.965601612327902,0 -15.6055111919026,27.9656354932497,0 -15.605445496470599,27.965665382040001,0 -15.6054119092778,27.965684459556002,0 -15.605391711183101,27.9657051933007,0 -15.605387681399099,27.965715474794901,0 -15.6053899155241,27.965733221189499,0 -15.605405536615301,27.965750416713099,0 -15.6054276290138,27.965761228713902,0 -15.6054642684181,27.965764380435498,0 -15.6054885027823,27.965767315920601,0 -15.6056261293693,27.965793710200099,0 -15.6056519591511,27.9657979547796,0 -15.605567062482899,27.965858871990299,0 -15.6054914092771,27.966008611736399,0 -15.605430637015401,27.966083582551601,0 -15.605331430489199,27.966124766240402,0 -15.605163310293401,27.9661526699342,0 -15.6050179093706,27.966139727198499,0 -15.604880005535501,27.966099586226999,0 -15.6046958678943,27.965998526985299,0 -15.604588521598799,27.965951460374502,0 -15.604458523157501,27.965914254143399,0 -15.6043664435872,27.9659048976328,0 -15.603948221081099,27.965967865996301,0 -15.603710763351501,27.965972422229701,0 -15.6035954763252,27.965996860518601,0 -15.603633349029,27.966034908637901,0 -15.6037169114056,27.9660655915206,0 -15.6037762113233,27.9660868274755,0 -15.603735967427401,27.966106111626999,0 -15.6036876009059,27.966115877162601,0 -15.603638384599501,27.966118004100601,0 -15.603584871381001,27.966110029632599,0 -15.6034935490684,27.966049852288201,0 -15.6035371803376,27.9660750964728,0 -15.6034638398651,27.966028487346598,0 -15.603428338503999,27.965933106048801,0 -15.603347001513299,27.965818819044198,0 -15.603247047223,27.965742827859401,0 -15.6031714095712,27.9656858375924,0 -15.603136280407799,27.965657330653901,0 -15.6031091011568,27.9656072927236,0 -15.603063252330401,27.965585998428899,0 -15.6030202795317,27.965598128650601,0 -15.602982553229101,27.965586352071998,0 -15.6029207504585,27.965598564773501,0 -15.6028561646205,27.965594070620799,0 -15.6028051479196,27.965611013136598,0 -15.602796575034899,27.965639552733101,0 -15.602872875204501,27.965696699182701,0 -15.6028433775669,27.9657135474326,0 -15.602767925942301,27.965689994164599,0 -15.6027167233988,27.965673499423399,0 -15.602687346187,27.965711843252599,0 -15.6026201232166,27.965716913878499,0 -15.6025527543134,27.965695713655201,0 -15.6024746779207,27.965684112715198,0 -15.6023993324992,27.9656796663592,0 -15.6023510051666,27.9656816472183,0 -15.6022511716696,27.965642099725098,0 -15.6021920579084,27.965654301234299,0 -15.602122039768,27.965640277170799,0 -15.601965941194999,27.965626628760202,0 -15.601920211847499,27.965626828798701,0 -15.6018553610062,27.965574567735299,0 -15.6018366105484,27.965588980204501,0 -15.601812744809701,27.965651183545301,0 -15.601783420276901,27.965699080294101,0 -15.6017838707615,27.9657802839649,0 -15.601744159994,27.965796381361301,0 -15.614979330354901,27.9695072014513,0 -15.615070693152401,27.969476436023299,0 -15.615145648011501,27.969409688071899,0 -15.6152154703555,27.9693291525539,0 -15.6152552240333,27.969257664760601,0 -15.615256948879001,27.9691143563285,0 -15.615346857484599,27.968958708061201,0 -15.615319600654701,27.968896133519301,0 -15.615386665649201,27.9688629932024,0 -15.615403288870899,27.968811313045599,0 -15.615482492076101,27.968614856162802,0 -15.615522346491201,27.9685611953505,0 -15.6155921680131,27.968480658741999,0 -15.615611690446199,27.968382519635799,0 -15.615681662562899,27.968328724026598,0 -15.6157416978897,27.9682928003608,0 -15.615801732159801,27.968256876673799,0 -15.6158416368937,27.968212128848698,0 -15.615833011443,27.968114618494699,0 -15.6158663825848,27.968069685962899,0 -15.615920788266401,27.968006757735498,0 -15.615990963488001,27.967988616085002,0 -15.6160510481354,27.967961606272201,0 -15.616030197822999,27.967901763651199,0 -15.6160298926238,27.9678480261137,0 -15.6160833542133,27.967788076460501,0 -15.616106688335201,27.9677521454445,0 -15.6160963293301,27.967704424313201,0 -15.6160659136587,27.967677690591501,0 -15.615968332235701,27.9676661855753,0 -15.615907400300101,27.967594806150199,0 -15.615853023371001,27.967493541306499,0 -15.6158621109522,27.967317355881502,0 -15.615878398563201,27.9672247322864,0 -15.6158877064496,27.967087356751598,0 -15.615819591849901,27.966935400606701,0 -15.615731200559701,27.966765621884502,0 -15.615646578399099,27.966667478423201,0 -15.6155588324037,27.966611145916499,0 -15.6155471172146,27.966527727020299,0 -15.6155501248615,27.966261879647298,0 -15.615586417251601,27.9661393114257,0 -15.615690146500899,27.9660492818747,0 -15.615639132751401,27.965948002767298,0 -15.6155911095537,27.965781028552598,0 -15.61554325592,27.965643909617899,0 -15.615478826735201,27.965548660941401,0 -15.6153910299155,27.965483371896401,0 -15.615340424172899,27.965453743042399,0 -15.6152629012498,27.9654212492784,0 -15.615308029690301,27.965397413775801,0 -15.6153808494296,27.965358951567499,0 -15.615561652099499,27.9653303477061,0 -15.615597442192,27.965244552498199,0 -15.615594666745899,27.965222721260702,0 -15.6156043804655,27.9651569969948,0 -15.615658027373399,27.965129887072699,0 -15.6156950550894,27.9651301528978,0 -15.615738929294499,27.9651653516446,0 -15.615762330769201,27.965141362260599,0 -15.615772231807901,27.965108477550299,0 -15.6158057037612,27.9650814578495,0 -15.615815096351399,27.964959009930801,0 -15.615872638198301,27.964893596973599,0 -15.615928605595601,27.964815197504802,0 -15.6158979545101,27.964746667734101,0 -15.6158097005268,27.9646007721438,0 -15.615785536580001,27.964490416267001,0 -15.6157584162475,27.964451726725699,0 -15.615778489339499,27.964433723625302,0 -15.615838675473199,27.964429581685199,0 -15.6159428926102,27.964370291378099,0 -15.616019787722401,27.964292324472801,0 -15.616060254862299,27.964313041836501,0 -15.616104119060401,27.964339714469698,0 -15.6161512571489,27.964360500333701,0 -15.6161718423437,27.964423006237901,0 -15.6162492291375,27.964431616341201,0 -15.616323389508601,27.964464124618999,0 -15.6163377302041,27.964439110527099,0 -15.6163327804577,27.964341676668699,0 -15.6164460179622,27.9641500965962,0 -15.6165833507801,27.964056929692099,0 -15.6166299153117,27.963967156462601,0 -15.616763902611799,27.963876990519399,0 -15.616891402137201,27.963828650577199,0 -15.6168564580401,27.9637307545031,0 -15.6168402180252,27.9636736328133,0 -15.6169174702924,27.963635072300399,0 -15.6169689753923,27.9636100016589,0 -15.616970910340299,27.963571778772799,0 -15.617011920800801,27.963529840280302,0 -15.6170931573761,27.963498622462001,0 -15.617125304651401,27.963454600518698,0 -15.617101167666,27.963393496332198,0 -15.6171611284825,27.963341637843499,0 -15.6171543140183,27.963278614458702,0 -15.6171949498996,27.963234485824099,0 -15.6173452043498,27.963166935853099,0 -15.6174222939825,27.963099714905301,0 -15.6178511287485,27.962825782628801,0 -15.6179320385371,27.962753212871199,0 -15.6179828881733,27.962707604647701,0 -15.6180549019726,27.962709116438301,0 -15.6181621036463,27.962639370378302,0 -15.618215112420099,27.9625006049483,0 -15.618252267579599,27.962412066818601,0 -15.6183239195186,27.962354044894202,0 -15.618367238492199,27.962289741041801,0 -15.618426265772699,27.962263203467799,0 -15.618452878324,27.962212926872699,0 -15.618560174575901,27.962159899983899,0 -15.618775337278,27.962054765958399,0 -15.6188669372285,27.962010007775099,0 -15.618898023791401,27.961969695795698,0 -15.619007954099599,27.961907103387901,0 -15.619200203157501,27.9618333161953,0 -15.6192923585262,27.961779237511202,0 -15.6194478985053,27.9617382470481,0 -15.6195961507132,27.961749209202502,0 -15.6197409765696,27.961729878307299,0 -15.619910640965101,27.9617072316756,0 -15.619977525569301,27.961644789968801,0 -15.6200582214822,27.961644426406199,0 -15.620168246335901,27.961598550749802,0 -15.6203752573401,27.9615785101584,0 -15.620472365544099,27.961625840803599,0 -15.6206154756093,27.961720732367802,0 -15.620731262964499,27.961741705362499,0 -15.620895454291301,27.961760072227701,0 -15.6209516539144,27.961709661668401,0 -15.6209997995224,27.961706334602301,0 -15.621077818640099,27.961663712462599,0 -15.6211716355209,27.961605967272501,0 -15.6212791486274,27.961591151506902,0 -15.621435037153599,27.961568952452101,0 -15.621612486901,27.9615538206011,0 -15.621677467799,27.961627567823498,0 -15.6218472861656,27.961603331159498,0 -15.6219299321991,27.961559551128001,0 -15.621867736011399,27.9615025104378,0 -15.6219214924669,27.961495102746401,0 -15.6220130989696,27.961520961051701,0 -15.6221502949991,27.961522729437899,0 -15.6222659317341,27.961517429502301,0 -15.6223086824807,27.9614670792064,0 -15.622381322860999,27.961469139266399,0 -15.622469909538401,27.9614376891722,0 -15.6226650202349,27.9612960414516,0 -15.622705548459001,27.961250327451701,0 -15.6226856501636,27.9610641217898,0 -15.6227825532361,27.961075625183,0 -15.622760527904401,27.960987353667001,0 -15.622800546057499,27.960929850817202,0 -15.622794673503,27.9608438938589,0 -15.6228831087251,27.960786171868101,0 -15.6229202183572,27.960690467945,0 -15.6229958292825,27.9606192922435,0 -15.6230591168683,27.960520261563101,0 -15.6231312618077,27.9604363408442,0 -15.623219834718,27.960402501780202,0 -15.623477935003599,27.960379837530301,0 -15.6238619911089,27.9602753945593,0 -15.6239559436492,27.960241531540898,0 -15.6240794967635,27.960209921886399,0 -15.624097858631901,27.960128632201901,0 -15.6242585335371,27.960003706646098,0 -15.624360266049299,27.959919650177,0 -15.6244245330636,27.959869202518799,0 -15.624540195383799,27.9598686776901,0 -15.624722800773201,27.9598153033625,0 -15.6247606785721,27.959853346519701,0 -15.6248201280779,27.959868152700601,0 -15.6248791133822,27.9598671392577,0 -15.624930591482901,27.959931392029599,0 -15.6249951884074,27.9599382643589,0 -15.6250733237554,27.959914726236299,0 -15.625134646856701,27.9598659787763,0 -15.625250130240101,27.959834404733201,0 -15.625339073625399,27.9598650500497,0 -15.625465880340499,27.959931348874001,0 -15.625522752569401,27.959997966363499,0 -15.625555044181199,27.960000208145399,0 -15.6255466712815,27.9599477006686,0 -15.6255809467952,27.959917219410599,0 -15.625876573245799,27.959893365455901,0 -15.6261475418065,27.959989675545,0 -15.6261898706114,27.9600020973485,0 -15.626353922219501,27.959996574603199,0 -15.6263860483839,27.9599701551703,0 -15.6263913032546,27.959948636051799,0 -15.6263507634647,27.959915382578899,0 -15.626385607170199,27.959893727890599,0 -15.626347590933401,27.959831802962601,0 -15.6261905885335,27.959660551282301,0 -15.6260607472163,27.959534556627499,0 -15.626003875926999,27.959467939352599,0 -15.6260359193504,27.9594271908427,0 -15.6261029855036,27.959395836323701,0 -15.626397668716001,27.959403281423899,0 -15.626603428128901,27.959417443401101,0 -15.626732635337399,27.959433573154399,0 -15.6268027499778,27.9594643032686,0 -15.6269043253014,27.959490019047902,0 -15.627001296361,27.959513461955702,0 -15.627074737697599,27.959517998341401,0 -15.627119415017001,27.959479609461201,0 -15.6102362104183,27.9679997355849,0 -15.610301040835401,27.968047216495702,0 -15.610341807358701,27.968121076445101,0 -15.6103664347687,27.9681950079732,0 -15.610404282698401,27.968228278078598,0 -15.6104636657063,27.968263840287001,0 -15.6104425080332,27.9683284215944,0 -15.6103618338838,27.968333556592899,0 -15.6103135476493,27.968357654545201,0 -15.6103515041571,27.9684100317392,0 -15.610416454824,27.968479007267501,0 -15.6104651846812,27.968533724288701,0 -15.6105355696951,27.9686122298769,0 -15.6106702200134,27.968637904670899,0 -15.6107967459601,27.9686540620709,0 -15.610867077481901,27.968723013493101,0 -15.6109211612032,27.968772930366399,0 -15.6109804494887,27.968791774669501,0 -15.611058541373,27.968805758327399,0 -15.611155518615,27.9688292113849,0 -15.6111852973743,27.968862517107599,0 -15.611201733747899,27.968914988742601,0 -15.611250181542101,27.968919550641498,0 -15.6113015483936,27.9689647023161,0 -15.6113287716295,27.9690219031244,0 -15.6114638265688,27.969119227529301,0 -15.611588323879401,27.969252425272799,0 -15.611908956213201,27.969536513499701,0 -15.611991447628601,27.969659051666198,0 -15.6121538626349,27.9698374600809,0 -15.6122298314134,27.969951765560101,0 -15.6122679646822,27.970035189935299,0 -15.6123706598827,27.970118327873202,0 -15.6124812361375,27.9701679917641,0 -15.6125435944047,27.9702536967744,0 -15.6125737112288,27.970346710970599,0 -15.6126171839284,27.970422946701699,0 -15.6125611512904,27.970504401668698,0 -15.6125210827387,27.970554737023001,0 -15.6080733320434,27.9684726630617,0 -15.6083041314113,27.968505474493501,0 -15.6084331139838,27.968480064471699,0 -15.608570802487799,27.9684370257118,0 -15.6087081959868,27.968472244533199,0 -15.608816465449699,27.968529959310999,0 -15.6089213528134,27.968585944942799,0 -15.608983653727799,27.968662098554301,0 -15.6090299207254,27.968757429762402,0 -15.609089463522199,27.968821653644799,0 -15.609175560622401,27.968858926128,0 -15.6092685815981,27.9689444969205,0 -15.609322003083699,27.969033193054901,0 -15.6093844913828,27.969142782740199,0 -15.6094359608344,27.969214996856099,0 -15.609483533988699,27.969281744277499,0 -15.609514499827,27.9694306436981,0 -15.609598903296501,27.969514341399101,0 -15.6096770430541,27.9696324607607,0 -15.609778554474399,27.9696969758871,0 -15.6097833856404,27.969790580319401,0 -15.6098482481587,27.969843792552499,0 -15.6099349519424,27.969918966430701,0 -15.609991132914701,27.9699941067678,0 -15.610041168417601,27.970150171122601,0 -15.610091557532099,27.9702477891672,0 -15.6101589491099,27.970367866012001,0 -15.610298994468501,27.970395905770999,0 -15.6104331389816,27.9704875869744,0 -15.6105118649385,27.970613823957802,0 -15.610552196573201,27.970645088002701,0 -15.610569627952801,27.9706832248478,0 -15.6105555648858,27.9707306620986,0 -15.610629018308,27.970854557317701,0 -15.6107393120315,27.9708755395148,0 -15.6108121469348,27.970911041829599,0 -15.610835926775801,27.970964831336602,0 -15.6108297933784,27.971022180310101,0 -15.6107808342078,27.9710831469712,0 -15.610720520418299,27.971108648005401,0 -15.610692746207199,27.971205347139499,0 -15.6106124733427,27.971282131802099,0 -15.6105587259096,27.971422725543,0 -15.610506105293,27.971502338372101,0 -15.610490677176699,27.971628992191,0 -15.6105910453511,27.9717766282673,0 -15.610612668480099,27.971829471412399,0 -15.610617639332199,27.971947913975299,0 -15.6106461226184,27.972037592216701,0 -15.6106765852292,27.972096689771899,0 -15.610696212377499,27.9721424600428,0 -15.6107136655818,27.972184418812098,0 -15.6107440596695,27.972196309723799,0 -15.6107868804931,27.972191736100399,0 -15.6108170536752,27.9721992453463,0 -15.6108537682546,27.972222011037601,0 -15.610903222172199,27.972274420033401,0 -15.610933297825699,27.972360269086401,0 -15.6109496025274,27.9724241226026,0 -15.610973238674701,27.972492398405599,0 -15.610975848740001,27.972546903842801,0</coordinates>
      </LineString>
    </Placemark>
  </Document>
</kml>